#aV2024  2  2  0  0  0.00000000     288 DD+AD WGS84 FIT  NGA
## 2299 432000.00000000   300.00000000 60342 0.0000000000000
+   32     1  2  3  4  5  6  7  8  9 10 11 12 13 14 15 16 17
+         18 19 20 21 22 23 24 25 26 27 28 29 30 31 32  0  0
+          0  0  0  0  0  0  0  0  0  0  0  0  0  0  0  0  0
+          0  0  0  0  0  0  0  0  0  0  0  0  0  0  0  0  0
+          0  0  0  0  0  0  0  0  0  0  0  0  0  0  0  0  0
++         2  2  2  2  2  2  2  2  2  2  2  2  2  2  2  2  2
++         2  2  2  2  2  2  2  2  2  2  2  2  2  2  2  0  0
++         0  0  0  0  0  0  0  0  0  0  0  0  0  0  0  0  0
++         0  0  0  0  0  0  0  0  0  0  0  0  0  0  0  0  0
++         0  0  0  0  0  0  0  0  0  0  0  0  0  0  0  0  0
%c cc cc ccc ccc cccc cccc cccc cccc ccccc ccccc ccccc ccccc
%c cc cc ccc ccc cccc cccc cccc cccc ccccc ccccc ccccc ccccc
%f  0.0000000  0.000000000  0.00000000000  0.000000000000000
%f  0.0000000  0.000000000  0.00000000000  0.000000000000000
%i    0    0    0    0      0      0      0      0         0
%i    0    0    0    0      0      0      0      0         0
/*      NGA, ST. LOUIS,MO.                                  
/*   EPHEMERIS COMPUTED FROM 2 DAYS OF DATA                 
/*   EPOCHA v9 SMOOTHER                                     
/*   G2296 IERS2010 SATIGS SATAPC                           
*  2024  2  2 18 30  0.00000000
P  1   9718.078261 -21178.617001 -12773.142197    168.061859                    
V  1  12435.879415  -9804.258868  26736.774703      0.013502                    
P  2  14524.895276 -21641.270711  -3869.887366   -491.522885                    
V  2   5734.336368  -2468.163179  31560.579169      0.058034                    
P  3   6939.854366 -13361.986912 -22013.322764    167.661331                    
V  3  26580.008452   7272.028580   4104.109975      0.249469                    
P  4   3080.447238 -23328.670264 -12169.327531    281.854244                    
V  4   5900.421178  14543.991151 -26488.326204      0.095387                    
P  5 -18883.871052   7845.148914  16825.506474   -160.312904                    
V  5 -20851.656771  -6011.415361 -20303.201328     -0.014358                    
P  6 -17604.578220   -880.440371 -19831.234649    422.187568                    
V  6  17339.677451 -18345.468333 -14423.315634     -0.142326                    
P  7  -3066.299383 -17422.226072  20159.852569    -52.482803                    
V  7  18307.207275 -16652.870582 -12369.560971     -0.091563                    
P  8   8263.130451 -17065.307081  18327.592021   -165.150889                    
V  8   8790.334905  22019.867025  16875.767336     -0.018481                    
P  9  -7276.375611 -25506.048971   -609.456685     79.085772                    
V  9   3027.206637   -209.771226 -31718.961517      0.124980                    
P 10  23281.916501  11055.498432   7293.219313    -71.756196                    
V 10  -9032.169947   -561.155396  30230.586640     -0.014960                    
P 11 -21911.023130   9025.272860 -11922.526371   -562.218938                    
V 11   9618.334166 -11969.177926 -26725.570170     -0.132960                    
P 12  -8267.594144  13214.782239 -21785.354550   -474.093713                    
V 12 -25470.051800  -8922.702728   4379.032584     -0.037579                    
P 13 -13620.469698   7709.363095  21222.536745    621.838746                    
V 13  -4235.008854 -27111.684475   7277.300243      0.035852                    
P 14 -20647.802371 -13509.168374  10094.966087    315.310576                    
V 14  13013.644325    881.745416  27674.752147      0.100918                    
P 15  -6330.119210  18101.159265  17801.237024    123.620751                    
V 15 -11672.061947 -20808.386362  16763.473505      0.039115                    
P 16  23554.493610   -778.113048  12357.276432   -371.171691                    
V 16  14441.661217   7286.213141 -25912.589899      0.080873                    
P 17 -12465.903097 -19933.227937 -11782.083428    718.178696                    
V 17   -971.224642 -15810.322728  26958.389994     -0.011185                    
P 18   3295.209881  16373.533513  20620.860815   -546.726485                    
V 18 -19310.557070  17669.541875 -11129.552317     -0.086815                    
P 19 -14999.248072 -11895.720054 -18749.356894    435.180884                    
V 19  -2743.543348 -23129.315694  16690.508278      0.052782                    
P 20 -25901.557862   1700.197689   5255.666652    388.989125                    
V 20  -6367.519357  -3655.454575 -30715.251453     -0.014512                    
P 21  17104.841531 -19597.080905   1139.117769    136.321335                    
V 21   2226.988389   2997.932006  32388.786909     -0.013112                    
P 22 -23881.203647 -10912.992920   3182.602921     37.744850                    
V 22   4346.881406  -1603.996090  31629.348411     -0.063336                    
P 23  13868.522638  15002.574159  17096.831469    147.926108                    
V 23 -21306.546300  -3509.347033  20205.168964      0.078410                    
P 24 -14669.682073  21700.758574  -3122.492262   -425.056026                    
V 24  -5304.581475    248.660323  31078.102153     -0.065925                    
P 25   4633.675972  16385.468621 -20782.794746    487.343812                    
V 25 -25064.741616  -5264.122567  -9630.470862      0.012206                    
P 26  26476.790723   3322.742255   1874.407389    194.283634                    
V 26   1896.976303   3808.199034 -30738.888371     -0.038207                    
P 27  14534.176190  -3778.700470  21635.983847     -0.468052                    
V 27   7829.708120  27005.196133   -115.032282     -0.035359                    
P 28  16304.467318   3591.425260 -20676.667907   -118.120108                    
V 28 -17084.702405  19891.329242 -10032.061128     -0.122198                    
P 29   3910.625522  26157.995672  -1783.774136   -607.699864                    
V 29  -2878.725765  -1685.164370 -31989.611506      0.006936                    
P 30 -12686.562748  -9617.507217  21400.615518   -437.658973                    
V 30  18858.398439 -19271.518960   2265.664180      0.048449                    
P 31  21130.855320  -4955.797110 -15787.098753   -227.622191                    
V 31 -12752.132992  14888.729343 -21637.369742     -0.001749                    
P 32  15080.803255  16588.963940 -14203.314491   -609.330411                    
V 32   3095.132712  18142.449985  23935.464546     -0.023591                    
EOF
